{
  "type": "FeatureCollection",
  "name": "sample-polygons",
  "features": [
    {
      "type": "Feature",
      "properties": {
        "name": "太湖（示意边界）",
        "type": "lake",
        "province": "江苏 / 浙江",
        "note": "多边形为简化示意，不可用于实际量算"
      },
      "geometry": {
        "type": "Polygon",
        "coordinates": [
          [
            [119.9005, 31.0002],
            [120.3021, 30.9518],
            [120.5987, 31.1043],
            [120.5541, 31.3527],
            [120.2016, 31.5481],
            [119.9462, 31.3472],
            [119.9005, 31.0002]
          ]
        ]
      }
    },
    {
      "type": "Feature",
      "properties": {
        "name": "示例管理区 A",
        "type": "district",
        "code": "DEMO-001",
        "area_hint": "约 0.2 万平方公里"
      },
      "geometry": {
        "type": "Polygon",
        "coordinates": [
          [
            [104.0, 30.4],
            [104.6, 30.4],
            [104.6, 30.8],
            [104.0, 30.8],
            [104.0, 30.4]
          ]
        ]
      }
    },
    {
      "type": "Feature",
      "properties": {
        "name": "示例管理区 B（带洞）",
        "type": "district",
        "code": "DEMO-002",
        "note": "Polygon 的第一个环是外环，后面的是内环（洞）"
      },
      "geometry": {
        "type": "Polygon",
        "coordinates": [
          [
            [113.6, 22.9],
            [114.1, 22.9],
            [114.1, 23.35],
            [113.6, 23.35],
            [113.6, 22.9]
          ],
          [
            [113.75, 23.05],
            [113.95, 23.05],
            [113.95, 23.2],
            [113.75, 23.2],
            [113.75, 23.05]
          ]
        ]
      }
    }
  ]
}
